start=new Date('2023-04-17T00:00:00.000Z').valueOf();
sats=[{"MEAN_MOTION_DOT":"0.00002168","CLASSIFICATION_TYPE":"U","LAUNCH_DATE":"2022-04-21","MEAN_MOTION":"15.08844521","APOAPSIS":"540.890","SITE":"AFETR","OBJECT_NAME":"STARLINK-3810","COUNTRY_CODE":"US","DECAY_DATE":null,"REF_FRAME":"TEME","RA_OF_ASC_NODE":"179.4056","MEAN_ELEMENT_THEORY":"SGP4","NORAD_CAT_ID":"52261","REV_AT_EPOCH":"5461","OBJECT_ID":"2022-041A","PERIOD":"95.437","EPOCH":"2023-04-16T12:39:56.625408","MEAN_ANOMALY":"282.7205","ECCENTRICITY":"0.00016750","EPHEMERIS_TYPE":"0","ARG_OF_PERICENTER":"77.3975","TIME_SYSTEM":"UTC","INCLINATION":"53.2169","MEAN_MOTION_DDOT":"0.0000000000000","PERIAPSIS":"538.573","OBJECT_TYPE":"PAYLOAD","CENTER_NAME":"EARTH","FILE":"3888626","ELEMENT_SET_NO":"999","RCS_SIZE":"LARGE","TLE_LINE2":"2 52261  53.2169 179.4056 0001675  77.3975 282.7205 15.08844521 54613","TLE_LINE1":"1 52261U 22041A   23106.52773872  .00002168  00000-0  15424-3 0  9994","GP_ID":"230168945","SEMIMAJOR_AXIS":"6917.867","BSTAR":"0.00015424000000"},{"TLE_LINE1":"1 52262U 22041B   23106.52677091  .00001693  00000-0  12443-3 0  9991","TLE_LINE2":"2 52262  53.2171 179.3510 0001151  85.4937 274.6187 15.08843054 54617","BSTAR":"0.00012443000000","SEMIMAJOR_AXIS":"6917.871","GP_ID":"230168686","ARG_OF_PERICENTER":"85.4937","TIME_SYSTEM":"UTC","EPHEMERIS_TYPE":"0","MEAN_ANOMALY":"274.6187","PERIOD":"95.437","EPOCH":"2023-04-16T12:38:33.006624","ECCENTRICITY":"0.00011510","OBJECT_ID":"2022-041B","CENTER_NAME":"EARTH","FILE":"3888626","RCS_SIZE":"LARGE","ELEMENT_SET_NO":"999","OBJECT_TYPE":"PAYLOAD","PERIAPSIS":"538.940","INCLINATION":"53.2171","MEAN_MOTION_DDOT":"0.0000000000000","DECAY_DATE":null,"OBJECT_NAME":"STARLINK-3761","COUNTRY_CODE":"US","NORAD_CAT_ID":"52262","REV_AT_EPOCH":"5461","MEAN_ELEMENT_THEORY":"SGP4","RA_OF_ASC_NODE":"179.3510","REF_FRAME":"TEME","LAUNCH_DATE":"2022-04-21","CLASSIFICATION_TYPE":"U","MEAN_MOTION_DOT":"0.00001693","SITE":"AFETR","APOAPSIS":"540.532","MEAN_MOTION":"15.08843054"},{"INCLINATION":"53.2153","MEAN_MOTION_DDOT":"0.0000000000000","PERIAPSIS":"538.702","OBJECT_TYPE":"PAYLOAD","CENTER_NAME":"EARTH","FILE":"3888626","RCS_SIZE":"LARGE","ELEMENT_SET_NO":"999","OBJECT_ID":"2022-041C","PERIOD":"95.438","ECCENTRICITY":"0.00015160","MEAN_ANOMALY":"278.1981","EPOCH":"2023-04-16T11:08:28.653792","EPHEMERIS_TYPE":"0","TIME_SYSTEM":"UTC","ARG_OF_PERICENTER":"81.9183","GP_ID":"230167951","SEMIMAJOR_AXIS":"6917.886","BSTAR":"0.00009087200000","TLE_LINE2":"2 52263  53.2153 179.6820 0001516  81.9183 278.1981 15.08838317 54600","TLE_LINE1":"1 52263U 22041C   23106.46422053  .00001158  00000-0  90872-4 0  9990","MEAN_MOTION":"15.08838317","APOAPSIS":"540.799","SITE":"AFETR","MEAN_MOTION_DOT":"0.00001158","CLASSIFICATION_TYPE":"U","LAUNCH_DATE":"2022-04-21","REF_FRAME":"TEME","RA_OF_ASC_NODE":"179.6820","MEAN_ELEMENT_THEORY":"SGP4","NORAD_CAT_ID":"52263","REV_AT_EPOCH":"5460","COUNTRY_CODE":"US","OBJECT_NAME":"STARLINK-3786","DECAY_DATE":null},{"DECAY_DATE":null,"COUNTRY_CODE":"US","OBJECT_NAME":"STARLINK-3795","MEAN_ELEMENT_THEORY":"SGP4","REV_AT_EPOCH":"5461","NORAD_CAT_ID":"52264","REF_FRAME":"TEME","RA_OF_ASC_NODE":"179.4155","CLASSIFICATION_TYPE":"U","LAUNCH_DATE":"2022-04-21","MEAN_MOTION_DOT":"-0.00000356","APOAPSIS":"540.770","SITE":"AFETR","MEAN_MOTION":"15.08836901","TLE_LINE2":"2 52264  53.2153 179.4155 0001467  62.4890 297.6251 15.08836901 54618","TLE_LINE1":"1 52264U 22041D   23106.52310437 -.00000356  00000-0 -42536-5 0  9996","SEMIMAJOR_AXIS":"6917.890","BSTAR":"-0.00000425360000","GP_ID":"230168201","EPHEMERIS_TYPE":"0","ARG_OF_PERICENTER":"62.4890","TIME_SYSTEM":"UTC","OBJECT_ID":"2022-041D","ECCENTRICITY":"0.00014670","PERIOD":"95.438","MEAN_ANOMALY":"297.6251","EPOCH":"2023-04-16T12:33:16.217568","PERIAPSIS":"538.740","OBJECT_TYPE":"PAYLOAD","CENTER_NAME":"EARTH","FILE":"3888626","ELEMENT_SET_NO":"999","RCS_SIZE":"LARGE","INCLINATION":"53.2153","MEAN_MOTION_DDOT":"0.0000000000000"},{"MEAN_MOTION":"15.08857256","APOAPSIS":"540.301","SITE":"AFETR","MEAN_MOTION_DOT":"0.00003692","CLASSIFICATION_TYPE":"U","LAUNCH_DATE":"2022-04-21","REF_FRAME":"TEME","RA_OF_ASC_NODE":"178.5372","MEAN_ELEMENT_THEORY":"SGP4","REV_AT_EPOCH":"5464","NORAD_CAT_ID":"52265","COUNTRY_CODE":"US","OBJECT_NAME":"STARLINK-3740","DECAY_DATE":null,"INCLINATION":"53.2130","MEAN_MOTION_DDOT":"0.0000000000000","OBJECT_TYPE":"PAYLOAD","PERIAPSIS":"539.084","ELEMENT_SET_NO":"999","RCS_SIZE":"LARGE","CENTER_NAME":"EARTH","FILE":"3888799","OBJECT_ID":"2022-041E","ECCENTRICITY":"0.00008800","PERIOD":"95.436","MEAN_ANOMALY":"246.2633","EPOCH":"2023-04-16T17:14:06.236736","EPHEMERIS_TYPE":"0","ARG_OF_PERICENTER":"113.8451","TIME_SYSTEM":"UTC","GP_ID":"230199910","SEMIMAJOR_AXIS":"6917.828","BSTAR":"0.00024979000000","TLE_LINE2":"2 52265  53.2130 178.5372 0000880 113.8451 246.2633 15.08857256 54640","TLE_LINE1":"1 52265U 22041E   23106.71812774  .00003692  00000-0  24979-3 0  9992"},{"RA_OF_ASC_NODE":"179.4470","REF_FRAME":"TEME","REV_AT_EPOCH":"5461","NORAD_CAT_ID":"52266","MEAN_ELEMENT_THEORY":"SGP4","COUNTRY_CODE":"US","OBJECT_NAME":"STARLINK-3739","DECAY_DATE":null,"MEAN_MOTION":"15.08836339","SITE":"AFETR","APOAPSIS":"540.579","MEAN_MOTION_DOT":"-0.00000278","LAUNCH_DATE":"2022-04-21","CLASSIFICATION_TYPE":"U","GP_ID":"230169187","BSTAR":"0.00000059940000","SEMIMAJOR_AXIS":"6917.892","TLE_LINE1":"1 52266U 22041F   23106.51574082 -.00000278  00000-0  59940-6 0  9995","TLE_LINE2":"2 52266  53.2150 179.4470 0001189  82.3764 277.7363 15.08836339 54617","MEAN_MOTION_DDOT":"0.0000000000000","INCLINATION":"53.2150","RCS_SIZE":"LARGE","ELEMENT_SET_NO":"999","FILE":"3888626","CENTER_NAME":"EARTH","PERIAPSIS":"538.934","OBJECT_TYPE":"PAYLOAD","ECCENTRICITY":"0.00011890","PERIOD":"95.438","MEAN_ANOMALY":"277.7363","EPOCH":"2023-04-16T12:22:40.006848","OBJECT_ID":"2022-041F","ARG_OF_PERICENTER":"82.3764","TIME_SYSTEM":"UTC","EPHEMERIS_TYPE":"0"},{"CLASSIFICATION_TYPE":"U","LAUNCH_DATE":"2022-04-21","MEAN_MOTION_DOT":"0.00001324","APOAPSIS":"540.689","SITE":"AFETR","MEAN_MOTION":"15.08840222","DECAY_DATE":null,"COUNTRY_CODE":"US","OBJECT_NAME":"STARLINK-3748","MEAN_ELEMENT_THEORY":"SGP4","NORAD_CAT_ID":"52267","REV_AT_EPOCH":"5461","REF_FRAME":"TEME","RA_OF_ASC_NODE":"179.4650","EPHEMERIS_TYPE":"0","ARG_OF_PERICENTER":"106.8609","TIME_SYSTEM":"UTC","OBJECT_ID":"2022-041G","PERIOD":"95.438","ECCENTRICITY":"0.00013650","MEAN_ANOMALY":"253.2532","EPOCH":"2023-04-16T12:17:21.712704","OBJECT_TYPE":"PAYLOAD","PERIAPSIS":"538.800","CENTER_NAME":"EARTH","FILE":"3888626","ELEMENT_SET_NO":"999","RCS_SIZE":"LARGE","MEAN_MOTION_DDOT":"0.0000000000000","INCLINATION":"53.2155","TLE_LINE2":"2 52267  53.2155 179.4650 0001365 106.8609 253.2532 15.08840222 54612","TLE_LINE1":"1 52267U 22041G   23106.51205686  .00001324  00000-0  10123-3 0  9996","SEMIMAJOR_AXIS":"6917.880","BSTAR":"0.00010123000000","GP_ID":"230167452"},{"INCLINATION":"53.2159","MEAN_MOTION_DDOT":"0.0000000000000","PERIAPSIS":"539.060","OBJECT_TYPE":"PAYLOAD","FILE":"3888799","CENTER_NAME":"EARTH","RCS_SIZE":"LARGE","ELEMENT_SET_NO":"999","OBJECT_ID":"2022-041H","PERIOD":"95.438","MEAN_ANOMALY":"253.8391","ECCENTRICITY":"0.00010100","EPOCH":"2023-04-16T21:35:09.475008","EPHEMERIS_TYPE":"0","ARG_OF_PERICENTER":"106.2713","TIME_SYSTEM":"UTC","GP_ID":"230199699","SEMIMAJOR_AXIS":"6917.894","BSTAR":"-0.00009685700000","TLE_LINE2":"2 52268  53.2159 177.7339 0001010 106.2713 253.8391 15.08835586 54671","TLE_LINE1":"1 52268U 22041H   23106.89941522 -.00001829  00000-0 -96857-4 0  9995","MEAN_MOTION":"15.08835586","APOAPSIS":"540.458","SITE":"AFETR","MEAN_MOTION_DOT":"-0.00001829","CLASSIFICATION_TYPE":"U","LAUNCH_DATE":"2022-04-21","REF_FRAME":"TEME","RA_OF_ASC_NODE":"177.7339","MEAN_ELEMENT_THEORY":"SGP4","NORAD_CAT_ID":"52268","REV_AT_EPOCH":"5467","OBJECT_NAME":"STARLINK-3746","COUNTRY_CODE":"US","DECAY_DATE":null},{"RA_OF_ASC_NODE":"179.4774","REF_FRAME":"TEME","NORAD_CAT_ID":"52269","REV_AT_EPOCH":"5583","MEAN_ELEMENT_THEORY":"SGP4","COUNTRY_CODE":"US","OBJECT_NAME":"STARLINK-3791","DECAY_DATE":null,"MEAN_MOTION":"15.08841054","SITE":"AFETR","APOAPSIS":"540.793","MEAN_MOTION_DOT":"0.00000878","LAUNCH_DATE":"2022-04-21","CLASSIFICATION_TYPE":"U","GP_ID":"230173911","BSTAR":"0.00007325700000","SEMIMAJOR_AXIS":"6917.877","TLE_LINE1":"1 52269U 22041J   23106.50837683  .00000878  00000-0  73257-4 0  9996","TLE_LINE2":"2 52269  53.2186 179.4774 0001519 112.6176 247.4977 15.08841054 55837","MEAN_MOTION_DDOT":"0.0000000000000","INCLINATION":"53.2186","FILE":"3888716","CENTER_NAME":"EARTH","ELEMENT_SET_NO":"999","RCS_SIZE":"LARGE","OBJECT_TYPE":"PAYLOAD","PERIAPSIS":"538.691","MEAN_ANOMALY":"247.4977","PERIOD":"95.437","EPOCH":"2023-04-16T12:12:03.758112","ECCENTRICITY":"0.00015190","OBJECT_ID":"2022-041J","TIME_SYSTEM":"UTC","ARG_OF_PERICENTER":"112.6176","EPHEMERIS_TYPE":"0"},{"MEAN_MOTION":"15.08844884","SITE":"AFETR","APOAPSIS":"540.522","MEAN_MOTION_DOT":"0.00002399","LAUNCH_DATE":"2022-04-21","CLASSIFICATION_TYPE":"U","RA_OF_ASC_NODE":"177.7582","REF_FRAME":"TEME","NORAD_CAT_ID":"52270","REV_AT_EPOCH":"5467","MEAN_ELEMENT_THEORY":"SGP4","OBJECT_NAME":"STARLINK-3804","COUNTRY_CODE":"US","DECAY_DATE":null,"INCLINATION":"53.2158","MEAN_MOTION_DDOT":"0.0000000000000","FILE":"3888799","CENTER_NAME":"EARTH","ELEMENT_SET_NO":"999","RCS_SIZE":"LARGE","PERIAPSIS":"538.939","OBJECT_TYPE":"PAYLOAD","PERIOD":"95.437","MEAN_ANOMALY":"254.3257","EPOCH":"2023-04-16T21:33:46.806624","ECCENTRICITY":"0.00011440","OBJECT_ID":"2022-041K","ARG_OF_PERICENTER":"105.7861","TIME_SYSTEM":"UTC","EPHEMERIS_TYPE":"0","GP_ID":"230198699","BSTAR":"0.00016875000000","SEMIMAJOR_AXIS":"6917.865","TLE_LINE1":"1 52270U 22041K   23106.89845841  .00002399  00000-0  16875-3 0  9997","TLE_LINE2":"2 52270  53.2158 177.7582 0001144 105.7861 254.3257 15.08844884 54677"}];
